[{"OBJECT_NAME":"IRIDIUM 114","OBJECT_ID":"2017-003G","EPOCH":"2026-03-09T17:25:34.142304","MEAN_MOTION":14.34217503,"ECCENTRICITY":0.00021341,"INCLINATION":86.3979,"RA_OF_ASC_NODE":130.0546,"ARG_OF_PERICENTER":90.4305,"MEAN_ANOMALY":269.7135,"EPHEMERIS_TYPE":0,"CLASSIFICATION_TYPE":"U","NORAD_CAT_ID":41923,"ELEMENT_SET_NO":999,"REV_AT_EPOCH":47899,"BSTAR":9.4657235e-5,"MEAN_MOTION_DOT":2.85e-6,"MEAN_MOTION_DDOT":0},{"OBJECT_NAME":"FORMOSAT-3 FM6","OBJECT_ID":"2006-011A","EPOCH":"2026-03-09T22:22:42.518784","MEAN_MOTION":14.31311492,"ECCENTRICITY":0.00469679,"INCLINATION":71.9779,"RA_OF_ASC_NODE":154.822,"ARG_OF_PERICENTER":48.2221,"MEAN_ANOMALY":312.2915,"EPHEMERIS_TYPE":0,"CLASSIFICATION_TYPE":"U","NORAD_CAT_ID":29047,"ELEMENT_SET_NO":999,"REV_AT_EPOCH":4020,"BSTAR":0.00022506019,"MEAN_MOTION_DOT":5.62e-6,"MEAN_MOTION_DDOT":0}]
